1 46817U 20077E   21118.24600298  .00001661  00000-0  86255-4 0  9990
2 46817  97.4742 182.5464 0016074  47.2291 313.0292 15.17394064 27496
1 46817U 20077E   21118.44383552  .00001524  00000-0  79460-4 0  9991
2 46817  97.4746 182.7416 0016075  46.4463 313.8102 15.17394252 27523
1 46817U 20077E   21118.70761303  .00001455  00000-0  76005-4 0  9999
2 46817  97.4746 183.0019 0016052  45.5893 314.6652 15.17394564 27567
1 46817U 20077E   21118.83950166  .00001452  00000-0  75869-4 0  9994
2 46817  97.4745 183.1321 0016039  45.1709 315.0825 15.17394930 27586
1 46817U 20077E   21119.10327874  .00001448  00000-0  75633-4 0  9993
2 46817  97.4745 183.3924 0016020  44.3148 315.9365 15.17395702 27626
1 46817U 20077E   21119.43300016  .00001397  00000-0  73095-4 0  9991
2 46817  97.4745 183.7179 0015994  43.2748 316.9739 15.17396350 27676
1 46817U 20077E   21119.89460952  .00001381  00000-0  72281-4 0  9996
2 46817  97.4744 184.1734 0015955  41.7757 318.4692 15.17397632 27744
1 46817U 20077E   21120.35621861  .00001291  00000-0  67818-4 0  9997
2 46817  97.4744 184.6290 0015915  40.2576 319.9833 15.17398548 27813
1 46817U 20077E   21120.75188212  .00001270  00000-0  66761-4 0  9992
2 46817  97.4743 185.0193 0015865  39.0193 321.2182 15.17402032 27877
1 46817U 20077E   21120.88376988  .00001282  00000-0  67336-4 0  9997
2 46817  97.4742 185.1496 0015851  38.5479 321.6883 15.17403026 27897
1 46817U 20077E   21121.14754532  .00001268  00000-0  66643-4 0  9996
2 46817  97.4742 185.4099 0015822  37.6663 322.5676 15.17404170 27938
1 46817U 20077E   21121.41132058  .00001261  00000-0  66296-4 0  9996
2 46817  97.4742 185.6701 0015797  36.8747 323.3569 15.17405301 27976
1 46817U 20077E   21121.54320829  .00001238  00000-0  65147-4 0  9993
2 46817  97.4742 185.8003 0015794  36.4286 323.8019 15.17405637 27993
1 46817U 20077E   21121.67509577  .00001232  00000-0  64860-4 0  9991
2 46817  97.4741 185.9304 0015799  35.9965 324.2330 15.17406287 28017
1 46817U 20077E   21122.53236330  .00001895  00000-0  97932-4 0  9992
2 46817  97.4740 186.7765 0015715  33.1074 327.1140 15.17410427 28141
1 46817U 20077E   21122.55724005  .00001754  00000-0  90882-4 0  9996
2 46817  97.4729 186.8007 0015705  33.3646 102.6629 15.17408926 28143
1 46817U 20077E   21122.79613768  .00001897  00000-0  98026-4 0  9991
2 46817  97.4740 187.0368 0015682  32.2409 327.9779 15.17411301 28181
1 46817U 20077E   21122.92802468  .00001855  00000-0  95929-4 0  9996
2 46817  97.4740 187.1669 0015667  31.8167 328.4009 15.17411537 28201
1 46817U 20077E   21123.12585526  .00001852  00000-0  95793-4 0  9998
2 46817  97.4739 187.3621 0015651  31.1479 329.0679 15.17412317 28231
1 46817U 20077E   21123.45557280  .00001837  00000-0  95030-4 0  9997
2 46817  97.4740 187.6876 0015623  30.0783 330.1345 15.17413488 28281
1 46817U 20077E   21123.58745989  .00001744  00000-0  90383-4 0  9999
2 46817  97.4739 187.8177 0015611  29.6631 330.5484 15.17413477 28307
1 46817U 20077E   21123.78529019  .00001748  00000-0  90587-4 0  9995
2 46817  97.4739 188.0129 0015604  29.0023 331.2074 15.17414304 28334
1 46817U 20077E   21124.11500666  .00001781  00000-0  92247-4 0  9992
2 46817  97.4738 188.3382 0015555  27.9172 332.2893 15.17416729 28382
1 46817U 20077E   21124.44472342  .00001726  00000-0  89481-4 0  9992
2 46817  97.4739 188.6636 0015524  26.8289 333.3744 15.17417566 28434
1 46817U 20077E   21124.57661015  .00001618  00000-0  84096-4 0  9990
2 46817  97.4738 188.7938 0015516  26.3871 333.8149 15.17417485 28458
1 46817U 20077E   21124.90632635  .00001615  00000-0  83928-4 0  9993
2 46817  97.4737 189.1192 0015489  25.3042 334.8947 15.17418733 28502
1 46817U 20077E   21125.10415599  .00001612  00000-0  83795-4 0  9993
2 46817  97.4737 189.3144 0015471  24.6345 335.5624 15.17419416 28532
1 46817U 20077E   21125.43387214  .00001554  00000-0  80916-4 0  9998
2 46817  97.4737 189.6398 0015444  23.5545 336.6393 15.17420126 28586
1 46817U 20077E   21125.76358803  .00001490  00000-0  77685-4 0  9994
2 46817  97.4737 189.9651 0015409  22.4046 337.7857 15.17420799 28635
1 46817U 20077E   21126.55490587  .00001391  00000-0  72791-4 0  9991
2 46817  97.4736 190.7461 0015312  19.7292 340.4531 15.17421546 28752
1 46817U 20077E   21126.81867825  .00001379  00000-0  72194-4 0  9996
2 46817  97.4736 191.0063 0015288  18.8224 341.3571 15.17422185 28799
1 46817U 20077E   21126.88462128  .00001389  00000-0  72693-4 0  9995
2 46817  97.4736 191.0714 0015276  18.6060 341.5729 15.17422373 28803
1 46817U 20077E   21127.14839348  .00001375  00000-0  71972-4 0  9991
2 46817  97.4735 191.3317 0015246  17.7161 342.4601 15.17423060 28840
1 46817U 20077E   21127.54405182  .00001320  00000-0  69241-4 0  9996
2 46817  97.4735 191.7221 0015207  16.3647 343.8074 15.17423318 28901
1 46817U 20077E   21127.80782385  .00001308  00000-0  68621-4 0  9995
2 46817  97.4734 191.9824 0015174  15.4628 344.7066 15.17423935 28943
1 46817U 20077E   21127.87376682  .00001295  00000-0  67984-4 0  9997
2 46817  97.4734 192.0475 0015164  15.2594 344.9093 15.17424003 28956
1 46817U 20077E   21128.13753875  .00001279  00000-0  67207-4 0  9990
2 46817  97.4734 192.3077 0015141  14.3565 345.8096 15.17424634 28997
1 46817U 20077E   21128.46725373  .00000697  00000-0  38161-4 0  9998
2 46817  97.4734 192.6331 0015104  13.2435 346.9191 15.17424265 29041
1 46817U 20077E   21128.79696852  .00000671  00000-0  36857-4 0  9995
2 46817  97.4733 192.9585 0015072  12.1273 348.0320 15.17424754 29091
1 46817U 20077E   21128.92885438  .00000660  00000-0  36297-4 0  9996
2 46817  97.4733 193.0886 0015056  11.6765 348.4815 15.17424919 29118
1 46817U 20077E   21129.12668320  .00000654  00000-0  36037-4 0  9993
2 46817  97.4733 193.2838 0015041  10.9872 349.1687 15.17425230 29147
1 46817U 20077E   21129.25856914  .00000633  00000-0  34953-4 0  9997
2 46817  97.4733 193.4139 0015028  10.5411 349.6134 15.17425309 29164
1 46817U 20077E   21129.52234084  .00000633  00000-0  34943-4 0  9994
2 46817  97.4733 193.6742 0015004   9.6553 350.4966 15.17425715 29205
1 46817U 20077E   21129.78611245  .00000658  00000-0  36201-4 0  9996
2 46817  97.4733 193.9345 0014979   8.7354 351.4138 15.17426203 29245
1 46817U 20077E   21129.85205527  .00000670  00000-0  36824-4 0  9991
2 46817  97.4732 193.9996 0014972   8.4924 351.6560 15.17426365 29250
1 46817U 20077E   21130.11582663  .00000738  00000-0  40179-4 0  9994
2 46817  97.4732 194.2599 0014949   7.5578 352.5878 15.17427114 29291
1 46817U 20077E   21130.44554039  .00000915  00000-0  49046-4 0  9995
2 46817  97.4732 194.5852 0014906   6.4197 353.7224 15.17428606 29345
1 46817U 20077E   21130.77525406  .00001060  00000-0  56240-4 0  9993
2 46817  97.4732 194.9105 0014882   5.3573 354.7817 15.17429948 29393
1 46817U 20077E   21130.90713915  .00001218  00000-0  64156-4 0  9992
2 46817  97.4731 195.0407 0014878   4.8820 355.2556 15.17430978 29417
1 46817U 20077E   21131.10496727  .00001261  00000-0  66265-4 0  9995
2 46817  97.4731 195.2359 0014859   4.1947 355.9408 15.17431576 29448
1 46817U 20077E   21131.23685249  .00001395  00000-0  72981-4 0  9998
2 46817  97.4731 195.3660 0014847   3.7429 356.3913 15.17432575 29469
1 46817U 20077E   21131.30279519  .00001402  00000-0  73292-4 0  9990
2 46817  97.4731 195.4311 0014839   3.5164 356.6171 15.17432737 29478
1 46817U 20077E   21131.76439409  .00001371  00000-0  71751-4 0  9999
2 46817  97.4730 195.8866 0014789   1.8892 358.2395 15.17433321 29543
1 46817U 20077E   21131.89627950  .00001245  00000-0  65488-4 0  9993
2 46817  97.4730 196.0167 0014768   1.4542 358.6732 15.17433002 29562
1 46817U 20077E   21132.16005010  .00001258  00000-0  66138-4 0  9998
2 46817  97.4729 196.2770 0014738   0.5280 359.5967 15.17433547 29607
1 46817U 20077E   21132.42382062  .00001243  00000-0  65371-4 0  9994
2 46817  97.4730 196.5373 0014712 359.6061   0.5158 15.17434017 29640
1 46817U 20077E   21132.48976255  .00001705  00000-0  88415-4 0  9990
2 46817  97.4729 196.6023 0014712 359.3567   0.7645 15.17436815 29651
1 46817U 20077E   21132.81947487  .00001653  00000-0  85815-4 0  9995
2 46817  97.4729 196.9277 0014671 358.1822   1.9355 15.17437699 29708
1 46817U 20077E   21133.74266870  .00001110  00000-0  58739-4 0  9991
2 46817  97.4727 197.8386 0014560 354.8831   5.2251 15.17438303 29847
1 46817U 20077E   21134.13832285  .00001034  00000-0  54974-4 0  9996
2 46817  97.4727 198.2290 0014519 353.4710   6.6332 15.17438841 29900
1 46817U 20077E   21134.53397682  .00000983  00000-0  52413-4 0  9995
2 46817  97.4727 198.6194 0014482 352.0765   8.0238 15.17439513 29965
1 46817U 20077E   21134.79774599  .00000970  00000-0  51765-4 0  9994
2 46817  97.4727 198.8797 0014456 351.1232   8.9743 15.17440054 30005
1 46817U 20077E   21135.12745724  .00000943  00000-0  50416-4 0  9992
2 46817  97.4726 199.2050 0014427 349.9287  10.1655 15.17440724 30050
1 46817U 20077E   21135.91876347  .00000917  00000-0  49108-4 0  9992
2 46817  97.4726 199.9858 0014354 347.1022  12.9842 15.17442616 30172
1 46817U 20077E   21136.51224233  .00001062  00000-0  56367-4 0  9997
2 46817  97.4726 200.5714 0014302 344.9731  15.1076 15.17444637 30266
1 46817U 20077E   21136.71006858  .00001078  00000-0  57155-4 0  9993
2 46817  97.4726 200.7666 0014283 344.2666  15.8122 15.17445138 30291
1 46817U 20077E   21137.63325697  .00001031  00000-0  54815-4 0  9999
2 46817  97.4725 201.6775 0014191 340.9591  19.1111 15.17447115 30437
1 46817U 20077E   21137.89702485  .00001045  00000-0  55517-4 0  9996
2 46817  97.4725 201.9378 0014164 340.0010  20.0666 15.17447777 30470
1 46817U 20077E   21138.09485068  .00001042  00000-0  55346-4 0  9991
2 46817  97.4725 202.1330 0014146 339.2635  20.8023 15.17448245 30504
1 46817U 20077E   21138.42455989  .00001156  00000-0  61042-4 0  9993
2 46817  97.4725 202.4583 0014116 338.0661  21.9967 15.17449717 30559
1 46817U 20077E   21138.55644304  .00001302  00000-0  68287-4 0  9999
2 46817  97.4725 202.5884 0014106 337.6372  22.4245 15.17451036 30571
